0 CZ-4 DEB
1 35379U 03049F   13284.06466557  .00000237  00000-0  20873-3 0  3023
2 35379 098.9903 222.6117 0178379 231.5933 190.0749 13.87616258486217
0 CZ-4 DEB
1 35379U 03049F   13286.31842510  .00000310  00000-0  26344-3 0  3032
2 35379 098.9907 224.7824 0178427 225.4442 288.6003 13.87616690486521
0 CZ-4 DEB
1 35379U 03049F   13291.64838141  .00000311  00000-0  26368-3 0  3047
2 35379 098.9916 229.9163 0178596 210.9174 274.1112 13.87621312487262
0 CZ-4 DEB
1 35379U 03049F   13295.81132350  .00000352  00000-0  29398-3 0  3051
2 35379 098.9921 233.9270 0178753 199.6081 189.8769 13.87624698487841
